[
  {
    "OBJECT_NAME": "STARLINK-1903",
    "OBJECT_ID": "20074AB",
    "EPOCH": "2025-11-12T05:07:34.143168",
    "MEAN_MOTION": 16.14920451,
    "ECCENTRICITY": 0.0007845,
    "INCLINATION": 53.0019,
    "RA_OF_ASC_NODE": 33.5734,
    "ARG_OF_PERICENTER": 339.2207,
    "MEAN_ANOMALY": 20.8508,
    "EPHEMERIS_TYPE": 0,
    "CLASSIFICATION_TYPE": "U",
    "NORAD_CAT_ID": 46764,
    "ELEMENT_SET_NO": 999,
    "REV_AT_EPOCH": 28030,
    "BSTAR": 0.0018552,
    "MEAN_MOTION_DOT": 0.02268079,
    "MEAN_MOTION_DDOT": 0.0062702999999999995,
    "TLE_LINE1": "1 46764U 20074AB  25316.21358962  .02268079  62703-2  18552-2 0  9990",
    "TLE_LINE2": "2 46764  53.0019  33.5734 0007845 339.2207  20.8508 16.14920451280301",
    "COMMENT": "Grouped by shell and plane from TLE"
  }
]